FLOCK 4G-24             
1 62637U 25009AE  26068.72509072  .00010513  00000+0  38996-3 0  9991
2 62637  97.4061 151.5140 0001802 280.2808  79.8228 15.27784978 63732
STARLINK-36475          
1 67350U 26003S   26068.47483562  .00031889  00000+0  11626-2 0  9999
2 67350  43.0003 228.0452 0002750 293.0154  67.0408 15.27598575  8797
